ALOS-2                  
1 39766U 14029A   26069.93618288  .00001650  00000+0  22758-3 0  9993
2 39766  97.9187 168.5148 0001420  96.1959 263.9415 14.79508066637050
YAOGAN-29               
1 41038U 15069A   26070.00897720 -.00000010  00000+0  54581-5 0  9994
2 41038  98.0144  98.4419 0001798  33.8721 326.2606 14.82995361556074
ASTRO-H (HITOMI)        
1 41337U 16012A   26069.82394716  .00004027  00000+0  23588-3 0  9992
2 41337  31.0007 349.2282 0009804 342.4768  17.5531 15.10015481552400
HXMT (HUIYAN)           
1 42758U 17034A   26069.96243561  .00007605  00000+0  37891-3 0  9998
2 42758  43.0158   9.5973 0033062 243.7393 116.0056 15.17485618482736
SAOCOM 1A               
1 43641U 18076A   26068.96299391  .00001305  00000+0  17043-3 0  9996
2 43641  97.8895 257.1316 0001339  83.6952 276.4413 14.82173643401405
H-2A R/B                
1 43682U 18084L   26069.57677843  .00023504  00000+0  55790-3 0  9996
2 43682  98.8729 287.1541 0025387  22.2756 337.9583 15.41390798405919
SAOCOM 1B               
1 46265U 20059A   26069.93940826  .00001070  00000+0  14095-3 0  9992
2 46265  97.8894 257.1918 0001374  86.0090 274.1280 14.82150223298934
CSS (TIANHE)            
1 48274U 21035A   26069.80341873  .00031070  00000+0  36544-3 0  9998
2 48274  41.4661 201.3850 0006965 279.9751  80.0301 15.60727089277782
COSMOS 2550             
1 48865U 21056A   26069.95189523 -.00000191  00000+0  10613-7 0  9999
2 48865  67.1456  37.1134 0008422 269.4405  90.5784 15.33830931263658
CZ-2C R/B               
1 52794U 22058K   26069.92673073  .00041363  00000+0  59984-3 0  9998
2 52794  50.1894 311.9258 0042118 206.1174 153.7672 15.54336262210328
CZ-2C R/B               
1 54039U 22132E   26069.97334541  .00050712  00000+0  57498-3 0  9990
2 54039  97.2965  73.3293 0020555  87.1740 273.1870 15.61969492190574
GSLV R/B                
1 54149U 22138AN  26069.79051097  .00003930  00000+0  33937-3 0  9992
2 54149  87.3873 165.9936 0023121 142.9300 217.3534 14.96783711184092
