CCSDS_OMM_VERS = 2.0
CREATION_DATE  = 
ORIGINATOR     = 

OBJECT_NAME    = ALOS-2
OBJECT_ID      = 2014-029A
CENTER_NAME    = EARTH
REF_FRAME      = TEME
TIME_SYSTEM    = UTC
MEAN_ELEMENT_THEORY = SGP/SGP4

EPOCH          = 2026-03-10T22:28:06.200832
MEAN_MOTION    = 14.79508066
ECCENTRICITY   = .00014207
INCLINATION    = 97.9187
RA_OF_ASC_NODE = 168.5148
ARG_OF_PERICENTER = 96.1959
MEAN_ANOMALY   = 263.9415

EPHEMERIS_TYPE = 0
CLASSIFICATION_TYPE = U
NORAD_CAT_ID   = 39766
ELEMENT_SET_NO = 999
REV_AT_EPOCH   = 63705
BSTAR          = .22758101E-3
MEAN_MOTION_DOT = .165E-4
MEAN_MOTION_DDOT = 0

CCSDS_OMM_VERS = 2.0
CREATION_DATE  = 
ORIGINATOR     = 

OBJECT_NAME    = YAOGAN-29
OBJECT_ID      = 2015-069A
CENTER_NAME    = EARTH
REF_FRAME      = TEME
TIME_SYSTEM    = UTC
MEAN_ELEMENT_THEORY = SGP/SGP4

EPOCH          = 2026-03-11T00:12:55.630080
MEAN_MOTION    = 14.82995361
ECCENTRICITY   = .00017981
INCLINATION    = 98.0144
RA_OF_ASC_NODE = 98.4419
ARG_OF_PERICENTER = 33.8721
MEAN_ANOMALY   = 326.2606

EPHEMERIS_TYPE = 0
CLASSIFICATION_TYPE = U
NORAD_CAT_ID   = 41038
ELEMENT_SET_NO = 999
REV_AT_EPOCH   = 55607
BSTAR          = .5458138E-5
MEAN_MOTION_DOT = -.1E-6
MEAN_MOTION_DDOT = 0

CCSDS_OMM_VERS = 2.0
CREATION_DATE  = 
ORIGINATOR     = 

OBJECT_NAME    = ASTRO-H (HITOMI)
OBJECT_ID      = 2016-012A
CENTER_NAME    = EARTH
REF_FRAME      = TEME
TIME_SYSTEM    = UTC
MEAN_ELEMENT_THEORY = SGP/SGP4

EPOCH          = 2026-03-10T19:46:29.034624
MEAN_MOTION    = 15.10015481
ECCENTRICITY   = .00098046
INCLINATION    = 31.0007
RA_OF_ASC_NODE = 349.2282
ARG_OF_PERICENTER = 342.4768
MEAN_ANOMALY   = 17.5531

EPHEMERIS_TYPE = 0
CLASSIFICATION_TYPE = U
NORAD_CAT_ID   = 41337
ELEMENT_SET_NO = 999
REV_AT_EPOCH   = 55240
BSTAR          = .23588451E-3
MEAN_MOTION_DOT = .4027E-4
MEAN_MOTION_DDOT = 0

CCSDS_OMM_VERS = 2.0
CREATION_DATE  = 
ORIGINATOR     = 

OBJECT_NAME    = HXMT (HUIYAN)
OBJECT_ID      = 2017-034A
CENTER_NAME    = EARTH
REF_FRAME      = TEME
TIME_SYSTEM    = UTC
MEAN_ELEMENT_THEORY = SGP/SGP4

EPOCH          = 2026-03-10T23:05:54.436704
MEAN_MOTION    = 15.17485618
ECCENTRICITY   = .00330626
INCLINATION    = 43.0158
RA_OF_ASC_NODE = 9.5973
ARG_OF_PERICENTER = 243.7393
MEAN_ANOMALY   = 116.0056

EPHEMERIS_TYPE = 0
CLASSIFICATION_TYPE = U
NORAD_CAT_ID   = 42758
ELEMENT_SET_NO = 999
REV_AT_EPOCH   = 48273
BSTAR          = .37891033E-3
MEAN_MOTION_DOT = .7605E-4
MEAN_MOTION_DDOT = 0

CCSDS_OMM_VERS = 2.0
CREATION_DATE  = 
ORIGINATOR     = 

OBJECT_NAME    = SAOCOM 1A
OBJECT_ID      = 2018-076A
CENTER_NAME    = EARTH
REF_FRAME      = TEME
TIME_SYSTEM    = UTC
MEAN_ELEMENT_THEORY = SGP/SGP4

EPOCH          = 2026-03-09T23:06:42.673824
MEAN_MOTION    = 14.82173643
ECCENTRICITY   = .0001339
INCLINATION    = 97.8895
RA_OF_ASC_NODE = 257.1316
ARG_OF_PERICENTER = 83.6952
MEAN_ANOMALY   = 276.4413

EPHEMERIS_TYPE = 0
CLASSIFICATION_TYPE = U
NORAD_CAT_ID   = 43641
ELEMENT_SET_NO = 999
REV_AT_EPOCH   = 40140
BSTAR          = .17043E-3
MEAN_MOTION_DOT = .1305E-4
MEAN_MOTION_DDOT = 0

CCSDS_OMM_VERS = 2.0
CREATION_DATE  = 
ORIGINATOR     = 

OBJECT_NAME    = H-2A R/B
OBJECT_ID      = 2018-084L
CENTER_NAME    = EARTH
REF_FRAME      = TEME
TIME_SYSTEM    = UTC
MEAN_ELEMENT_THEORY = SGP/SGP4

EPOCH          = 2026-03-10T13:50:33.656352
MEAN_MOTION    = 15.41390798
ECCENTRICITY   = .00253876
INCLINATION    = 98.8729
RA_OF_ASC_NODE = 287.1541
ARG_OF_PERICENTER = 22.2756
MEAN_ANOMALY   = 337.9583

EPHEMERIS_TYPE = 0
CLASSIFICATION_TYPE = U
NORAD_CAT_ID   = 43682
ELEMENT_SET_NO = 999
REV_AT_EPOCH   = 40591
BSTAR          = .55789633E-3
MEAN_MOTION_DOT = .23504E-3
MEAN_MOTION_DDOT = 0

CCSDS_OMM_VERS = 2.0
CREATION_DATE  = 
ORIGINATOR     = 

OBJECT_NAME    = SAOCOM 1B
OBJECT_ID      = 2020-059A
CENTER_NAME    = EARTH
REF_FRAME      = TEME
TIME_SYSTEM    = UTC
MEAN_ELEMENT_THEORY = SGP/SGP4

EPOCH          = 2026-03-10T22:32:44.873664
MEAN_MOTION    = 14.82150223
ECCENTRICITY   = .0001374
INCLINATION    = 97.8894
RA_OF_ASC_NODE = 257.1918
ARG_OF_PERICENTER = 86.0090
MEAN_ANOMALY   = 274.1280

EPHEMERIS_TYPE = 0
CLASSIFICATION_TYPE = U
NORAD_CAT_ID   = 46265
ELEMENT_SET_NO = 999
REV_AT_EPOCH   = 29893
BSTAR          = .14094597E-3
MEAN_MOTION_DOT = .107E-4
MEAN_MOTION_DDOT = 0

CCSDS_OMM_VERS = 2.0
CREATION_DATE  = 
ORIGINATOR     = 

OBJECT_NAME    = CSS (TIANHE)
OBJECT_ID      = 2021-035A
CENTER_NAME    = EARTH
REF_FRAME      = TEME
TIME_SYSTEM    = UTC
MEAN_ELEMENT_THEORY = SGP/SGP4

EPOCH          = 2026-03-10T19:16:55.378272
MEAN_MOTION    = 15.60727089
ECCENTRICITY   = .0006965
INCLINATION    = 41.4661
RA_OF_ASC_NODE = 201.3850
ARG_OF_PERICENTER = 279.9751
MEAN_ANOMALY   = 80.0301

EPHEMERIS_TYPE = 0
CLASSIFICATION_TYPE = U
NORAD_CAT_ID   = 48274
ELEMENT_SET_NO = 999
REV_AT_EPOCH   = 27778
BSTAR          = .36544172E-3
MEAN_MOTION_DOT = .3107E-3
MEAN_MOTION_DDOT = 0

CCSDS_OMM_VERS = 2.0
CREATION_DATE  = 
ORIGINATOR     = 

OBJECT_NAME    = COSMOS 2550
OBJECT_ID      = 2021-056A
CENTER_NAME    = EARTH
REF_FRAME      = TEME
TIME_SYSTEM    = UTC
MEAN_ELEMENT_THEORY = SGP/SGP4

EPOCH          = 2026-03-10T22:50:43.747872
MEAN_MOTION    = 15.33830931
ECCENTRICITY   = .00084223
INCLINATION    = 67.1456
RA_OF_ASC_NODE = 37.1134
ARG_OF_PERICENTER = 269.4405
MEAN_ANOMALY   = 90.5784

EPHEMERIS_TYPE = 0
CLASSIFICATION_TYPE = U
NORAD_CAT_ID   = 48865
ELEMENT_SET_NO = 999
REV_AT_EPOCH   = 26365
BSTAR          = .10613E-7
MEAN_MOTION_DOT = -.191E-5
MEAN_MOTION_DDOT = 0

CCSDS_OMM_VERS = 2.0
CREATION_DATE  = 
ORIGINATOR     = 

OBJECT_NAME    = CZ-2C R/B
OBJECT_ID      = 2022-058K
CENTER_NAME    = EARTH
REF_FRAME      = TEME
TIME_SYSTEM    = UTC
MEAN_ELEMENT_THEORY = SGP/SGP4

EPOCH          = 2026-03-10T22:14:29.535072
MEAN_MOTION    = 15.54336262
ECCENTRICITY   = .00421186
INCLINATION    = 50.1894
RA_OF_ASC_NODE = 311.9258
ARG_OF_PERICENTER = 206.1174
MEAN_ANOMALY   = 153.7672

EPHEMERIS_TYPE = 0
CLASSIFICATION_TYPE = U
NORAD_CAT_ID   = 52794
ELEMENT_SET_NO = 999
REV_AT_EPOCH   = 21032
BSTAR          = .59984277E-3
MEAN_MOTION_DOT = .41363E-3
MEAN_MOTION_DDOT = 0

CCSDS_OMM_VERS = 2.0
CREATION_DATE  = 
ORIGINATOR     = 

OBJECT_NAME    = CZ-2C R/B
OBJECT_ID      = 2022-132E
CENTER_NAME    = EARTH
REF_FRAME      = TEME
TIME_SYSTEM    = UTC
MEAN_ELEMENT_THEORY = SGP/SGP4

EPOCH          = 2026-03-10T23:21:37.043424
MEAN_MOTION    = 15.61969492
ECCENTRICITY   = .00205553
INCLINATION    = 97.2965
RA_OF_ASC_NODE = 73.3293
ARG_OF_PERICENTER = 87.1740
MEAN_ANOMALY   = 273.1870

EPHEMERIS_TYPE = 0
CLASSIFICATION_TYPE = U
NORAD_CAT_ID   = 54039
ELEMENT_SET_NO = 999
REV_AT_EPOCH   = 19057
BSTAR          = .57498494E-3
MEAN_MOTION_DOT = .50712E-3
MEAN_MOTION_DDOT = 0

CCSDS_OMM_VERS = 2.0
CREATION_DATE  = 
ORIGINATOR     = 

OBJECT_NAME    = GSLV R/B
OBJECT_ID      = 2022-138AN
CENTER_NAME    = EARTH
REF_FRAME      = TEME
TIME_SYSTEM    = UTC
MEAN_ELEMENT_THEORY = SGP/SGP4

EPOCH          = 2026-03-10T18:58:20.147808
MEAN_MOTION    = 14.96783711
ECCENTRICITY   = .00231214
INCLINATION    = 87.3873
RA_OF_ASC_NODE = 165.9936
ARG_OF_PERICENTER = 142.9300
MEAN_ANOMALY   = 217.3534

EPHEMERIS_TYPE = 0
CLASSIFICATION_TYPE = U
NORAD_CAT_ID   = 54149
ELEMENT_SET_NO = 999
REV_AT_EPOCH   = 18409
BSTAR          = .33936738E-3
MEAN_MOTION_DOT = .393E-4
MEAN_MOTION_DDOT = 0

